OBJECT_NAME,OBJECT_ID,EPOCH,MEAN_MOTION,ECCENTRICITY,INCLINATION,RA_OF_ASC_NODE,ARG_OF_PERICENTER,MEAN_ANOMALY,EPHEMERIS_TYPE,CLASSIFICATION_TYPE,NORAD_CAT_ID,ELEMENT_SET_NO,REV_AT_EPOCH,BSTAR,MEAN_MOTION_DOT,MEAN_MOTION_DDOT
BEIDOU-2 M4,2012-018B,2026-06-18T04:40:39.880992,1.86229337,.0011297,55.6572,304.0554,275.6093,84.2520,0,U,38251,999,9596,0,-.76E-6,0
ARIRANG-3 (KOMPSAT-3),2012-025B,2026-06-18T17:50:36.227040,14.62207297,.0006717,98.1171,127.1765,105.4318,254.7626,0,U,38338,999,75157,.74422E-4,.328E-5,0
METOP-B,2012-049A,2026-06-18T16:01:41.584224,14.21433134,.0002144,98.6504,221.1376,15.8743,344.2501,0,U,38771,999,71347,.59817E-4,.87E-6,0
SJ-9A,2012-056A,2026-06-18T15:30:46.647936,14.85480837,.0024026,97.6709,141.5450,251.5625,108.2978,0,U,38860,999,69980,.92618E-4,.75E-5,0
COSMOS 2484 (RODNIK-S 6),2013-001C,2026-06-18T18:08:33.885600,12.42939412,.0026811,82.5008,220.9175,33.2666,327.0092,0,U,39059,999,60875,.34607E-3,.58E-6,0
SARAL,2013-009A,2026-06-18T15:31:42.356064,14.32856264,.0000662,98.5557,356.1957,299.0378,61.0740,0,U,39086,999,69581,.3835E-4,.61E-6,0
STRAND-1,2013-009E,2026-06-18T17:26:46.828032,14.37163972,.0007804,98.3923,349.9234,220.1282,139.9329,0,U,39090,999,69728,.79602E-4,.194E-5,0
BRITE-AUSTRIA,2013-009F,2026-06-18T07:44:29.219424,14.36542508,.000919,98.3995,348.7300,232.6910,127.3439,0,U,39091,999,69721,.58246E-4,.128E-5,0
GAOFEN-1,2013-018A,2026-06-18T18:10:20.874720,14.76537781,.0015684,97.9094,241.7934,260.9577,98.9858,0,U,39150,999,70847,.67866E-4,.423E-5,0
NEE-01 PEGASO,2013-018B,2026-06-18T08:05:56.562144,14.93664438,.001322,98.1225,313.5252,155.6183,204.5663,0,U,39151,999,71087,.22456E-3,.2315E-4,0
PROBA-V,2013-021A,2026-06-18T09:13:21.906912,14.23597149,.0005185,98.3584,147.9318,120.6226,239.5465,0,U,39159,999,68128,.38301E-4,.46E-6,0
ARIRANG-5 (KOMPSAT-5),2013-042A,2026-06-18T18:17:44.905920,15.04494499,.0005432,97.6200,356.4405,116.4449,243.7335,0,U,39227,999,70409,.43192E-4,.544E-5,0
GONETS-M 5,2013-048A,2026-06-18T17:23:47.020992,12.42891525,.0016162,82.4829,342.4228,206.9175,153.1067,0,U,39249,999,57907,-.55063E-3,-.66E-6,0
GONETS-M 7,2013-048C,2026-06-18T18:26:18.946176,12.42914627,.0016936,82.4895,345.3189,208.1861,151.8303,0,U,39251,999,57903,-.71186E-4,0,0
FENGYUN 3C,2013-052A,2026-06-18T17:45:34.121664,14.15755395,.0015166,98.4987,143.5435,23.3583,336.8278,0,U,39260,999,65878,.60269E-4,.77E-6,0
CASSIOPE,2013-055A,2026-06-18T16:06:05.410080,15.25314777,.0292321,80.9137,64.9200,57.4682,305.4430,0,U,39265,999,66789,.46432E-3,.42638E-3,-.52736E-6
APRIZESAT 7,2013-066A,2026-06-18T08:40:33.168000,14.91566307,.003509,97.7709,122.5645,205.3037,154.6464,0,U,39416,999,68140,.99276E-4,.949E-5,0
ZACUBE-1 (TSHEPISOSAT),2013-066B,2026-06-18T08:10:15.915936,15.01194004,.0040949,97.8077,131.6833,243.7163,115.9851,0,U,39417,999,68090,.18681E-3,.2374E-4,0
APRIZESAT 8,2013-066K,2026-06-18T06:50:14.413056,14.87654398,.0044401,97.8221,116.7374,282.8265,76.7992,0,U,39425,999,67983,.8679E-4,.746E-5,0
TRITON-1,2013-066M,2026-06-18T17:07:50.911680,14.81710808,.0088541,97.8249,79.4866,228.8682,130.4866,0,U,39427,999,67431,.20987E-3,.1711E-4,0
